{
    "week": 293,
    "satellites": [
        {
            "Name": "BEIDOU-2 IGSO-1 (C06)",
            "Line1": "1 36828U 10036A   24323.50811365 -.00000061  00000+0  00000+0 0  9996",
            "Line2": "2 36828  54.2560 168.1663 0042715 205.8991 333.4548  1.00286171 52323",
            "SatelliteNumber": "36828",
            "Classification": "U",
            "LaunchYear": "10",
            "LaunchNumber": "036",
            "PieceOfLaunch": "A",
            "EpochYear": "24",
            "EpochDay": 323.50811365,
            "FirstDerivativeMeanMotion": -6.1e-07,
            "SecondDerivativeMeanMotion": "00000+0",
            "BSTAR": "00000+0",
            "SetNumber": "999",
            "Inclination": 54.256,
            "RAAN": 168.1663,
            "Eccentricity": 0.0042715,
            "ArgumentOfPerigee": 205.8991,
            "MeanAnomaly": 333.4548,
            "MeanMotion": 1.00286171,
            "RevolutionNumber": "5232"
        },
        {
            "Name": "BEIDOU-2 G4 (C04)",
            "Line1": "1 37210U 10057A   24323.75460728 -.00000110  00000+0  00000+0 0  9990",
            "Line2": "2 37210   2.2206  70.0776 0009718 178.4480 241.3914  1.00272568 51518",
            "SatelliteNumber": "37210",
            "Classification": "U",
            "LaunchYear": "10",
            "LaunchNumber": "057",
            "PieceOfLaunch": "A",
            "EpochYear": "24",
            "EpochDay": 323.75460728,
            "FirstDerivativeMeanMotion": -1.1e-06,
            "SecondDerivativeMeanMotion": "00000+0",
            "BSTAR": "00000+0",
            "SetNumber": "999",
            "Inclination": 2.2206,
            "RAAN": 70.0776,
            "Eccentricity": 0.0009718,
            "ArgumentOfPerigee": 178.448,
            "MeanAnomaly": 241.3914,
            "MeanMotion": 1.00272568,
            "RevolutionNumber": "5151"
        },
        {
            "Name": "BEIDOU-2 IGSO-2 (C07)",
            "Line1": "1 37256U 10068A   24323.59787440 -.00000211  00000+0  00000+0 0  9999",
            "Line2": "2 37256  48.5973 278.9327 0038359 218.0700 241.9281  1.00253085 51024",
            "SatelliteNumber": "37256",
            "Classification": "U",
            "LaunchYear": "10",
            "LaunchNumber": "068",
            "PieceOfLaunch": "A",
            "EpochYear": "24",
            "EpochDay": 323.5978744,
            "FirstDerivativeMeanMotion": -2.11e-06,
            "SecondDerivativeMeanMotion": "00000+0",
            "BSTAR": "00000+0",
            "SetNumber": "999",
            "Inclination": 48.5973,
            "RAAN": 278.9327,
            "Eccentricity": 0.0038359,
            "ArgumentOfPerigee": 218.07,
            "MeanAnomaly": 241.9281,
            "MeanMotion": 1.00253085,
            "RevolutionNumber": "5102"
        },
        {
            "Name": "BEIDOU-2 IGSO-3 (C08)",
            "Line1": "1 37384U 11013A   24323.72426087 -.00000203  00000+0  00000+0 0  9995",
            "Line2": "2 37384  61.5817  45.6267 0031674 180.3432 200.6578  1.00269739 49904",
            "SatelliteNumber": "37384",
            "Classification": "U",
            "LaunchYear": "11",
            "LaunchNumber": "013",
            "PieceOfLaunch": "A",
            "EpochYear": "24",
            "EpochDay": 323.72426087,
            "FirstDerivativeMeanMotion": -2.03e-06,
            "SecondDerivativeMeanMotion": "00000+0",
            "BSTAR": "00000+0",
            "SetNumber": "999",
            "Inclination": 61.5817,
            "RAAN": 45.6267,
            "Eccentricity": 0.0031674,
            "ArgumentOfPerigee": 180.3432,
            "MeanAnomaly": 200.6578,
            "MeanMotion": 1.00269739,
            "RevolutionNumber": "4990"
        },
        {
            "Name": "BEIDOU-2 IGSO-4 (C09)",
            "Line1": "1 37763U 11038A   24323.54912709 -.00000010  00000+0  00000+0 0  9990",
            "Line2": "2 37763  54.5618 170.8139 0129635 228.5654 312.7192  1.00275628 48877",
            "SatelliteNumber": "37763",
            "Classification": "U",
            "LaunchYear": "11",
            "LaunchNumber": "038",
            "PieceOfLaunch": "A",
            "EpochYear": "24",
            "EpochDay": 323.54912709,
            "FirstDerivativeMeanMotion": -1e-07,
            "SecondDerivativeMeanMotion": "00000+0",
            "BSTAR": "00000+0",
            "SetNumber": "999",
            "Inclination": 54.5618,
            "RAAN": 170.8139,
            "Eccentricity": 0.0129635,
            "ArgumentOfPerigee": 228.5654,
            "MeanAnomaly": 312.7192,
            "MeanMotion": 1.00275628,
            "RevolutionNumber": "4887"
        },
        {
            "Name": "BEIDOU-2 IGSO-5 (C10)",
            "Line1": "1 37948U 11073A   24323.60382925 -.00000196  00000+0  00000+0 0  9997",
            "Line2": "2 37948  48.7324 278.6285 0101309 221.9974 228.9605  1.00257491 47368",
            "SatelliteNumber": "37948",
            "Classification": "U",
            "LaunchYear": "11",
            "LaunchNumber": "073",
            "PieceOfLaunch": "A",
            "EpochYear": "24",
            "EpochDay": 323.60382925,
            "FirstDerivativeMeanMotion": -1.96e-06,
            "SecondDerivativeMeanMotion": "00000+0",
            "BSTAR": "00000+0",
            "SetNumber": "999",
            "Inclination": 48.7324,
            "RAAN": 278.6285,
            "Eccentricity": 0.0101309,
            "ArgumentOfPerigee": 221.9974,
            "MeanAnomaly": 228.9605,
            "MeanMotion": 1.00257491,
            "RevolutionNumber": "4736"
        },
        {
            "Name": "BEIDOU-2 G5 (C05)",
            "Line1": "1 38091U 12008A   24323.52410581  .00000058  00000+0  00000+0 0  9993",
            "Line2": "2 38091   2.1401  70.8768 0010513 221.2431  13.4848  1.00277033 46597",
            "SatelliteNumber": "38091",
            "Classification": "U",
            "LaunchYear": "12",
            "LaunchNumber": "008",
            "PieceOfLaunch": "A",
            "EpochYear": "24",
            "EpochDay": 323.52410581,
            "FirstDerivativeMeanMotion": 5.8e-07,
            "SecondDerivativeMeanMotion": "00000+0",
            "BSTAR": "00000+0",
            "SetNumber": "999",
            "Inclination": 2.1401,
            "RAAN": 70.8768,
            "Eccentricity": 0.0010513,
            "ArgumentOfPerigee": 221.2431,
            "MeanAnomaly": 13.4848,
            "MeanMotion": 1.00277033,
            "RevolutionNumber": "4659"
        },
        {
            "Name": "BEIDOU-2 M3 (C11)",
            "Line1": "1 38250U 12018A   24323.03805680 -.00000079  00000+0  00000+0 0  9999",
            "Line2": "2 38250  56.2302 324.2131 0025521 266.3848  93.3323  1.86233517 85211",
            "SatelliteNumber": "38250",
            "Classification": "U",
            "LaunchYear": "12",
            "LaunchNumber": "018",
            "PieceOfLaunch": "A",
            "EpochYear": "24",
            "EpochDay": 323.0380568,
            "FirstDerivativeMeanMotion": -7.9e-07,
            "SecondDerivativeMeanMotion": "00000+0",
            "BSTAR": "00000+0",
            "SetNumber": "999",
            "Inclination": 56.2302,
            "RAAN": 324.2131,
            "Eccentricity": 0.0025521,
            "ArgumentOfPerigee": 266.3848,
            "MeanAnomaly": 93.3323,
            "MeanMotion": 1.86233517,
            "RevolutionNumber": "8521"
        },
        {
            "Name": "BEIDOU-2 M4 (C12)",
            "Line1": "1 38251U 12018B   24323.50543849 -.00000078  00000+0  00000+0 0  9997",
            "Line2": "2 38251  56.1351 323.4575 0016424 268.5385  91.2810  1.86231958 85574",
            "SatelliteNumber": "38251",
            "Classification": "U",
            "LaunchYear": "12",
            "LaunchNumber": "018",
            "PieceOfLaunch": "B",
            "EpochYear": "24",
            "EpochDay": 323.50543849,
            "FirstDerivativeMeanMotion": -7.8e-07,
            "SecondDerivativeMeanMotion": "00000+0",
            "BSTAR": "00000+0",
            "SetNumber": "999",
            "Inclination": 56.1351,
            "RAAN": 323.4575,
            "Eccentricity": 0.0016424,
            "ArgumentOfPerigee": 268.5385,
            "MeanAnomaly": 91.281,
            "MeanMotion": 1.86231958,
            "RevolutionNumber": "8557"
        },
        {
            "Name": "BEIDOU-2 M6 (C14)",
            "Line1": "1 38775U 12050B   24323.75202632 -.00000027  00000+0  00000+0 0  9997",
            "Line2": "2 38775  56.0423  82.0032 0010584 342.4856  17.4532  1.86230914 82946",
            "SatelliteNumber": "38775",
            "Classification": "U",
            "LaunchYear": "12",
            "LaunchNumber": "050",
            "PieceOfLaunch": "B",
            "EpochYear": "24",
            "EpochDay": 323.75202632,
            "FirstDerivativeMeanMotion": -2.7e-07,
            "SecondDerivativeMeanMotion": "00000+0",
            "BSTAR": "00000+0",
            "SetNumber": "999",
            "Inclination": 56.0423,
            "RAAN": 82.0032,
            "Eccentricity": 0.0010584,
            "ArgumentOfPerigee": 342.4856,
            "MeanAnomaly": 17.4532,
            "MeanMotion": 1.86230914,
            "RevolutionNumber": "8294"
        }
    ]
}